STARLINK-36766          
1 68069U 26042A   26074.58335648 -.01469763  00000+0 -70729-2 0  9998
2 68069  53.1598 165.2594 0001075  50.3769 346.1139 15.84534180  2982
STARLINK-36823          
1 68070U 26042B   26074.58335648 -.01473676  00000+0 -70583-2 0  9996
2 68070  53.1593 165.2511 0000923  70.8686 329.4731 15.84640347  2989
STARLINK-36970          
1 68071U 26042C   26074.58335648 -.01477724  00000+0 -70050-2 0  9994
2 68071  53.1599 165.2357 0000905  69.0391 338.9237 15.84860445  2997
STARLINK-36972          
1 68072U 26042D   26074.58335648 -.01472335  00000+0 -70043-2 0  9990
2 68072  53.1598 165.2438 0001143  58.5820 345.4441 15.84774959  2996
STARLINK-37074          
1 68073U 26042E   26074.58335648 -.01478295  00000+0 -69735-2 0  9998
2 68073  53.1600 165.2280 0000966  69.6845 342.1087 15.84961488  2993
STARLINK-37045          
1 68074U 26042F   26074.58335648 -.01482583  00000+0 -69652-2 0  9992
2 68074  53.1598 165.2197 0001149  55.0047   0.6920 15.85051288  2995
STARLINK-37026          
1 68075U 26042G   26074.58335648 -.01485375  00000+0 -69534-2 0  9994
2 68075  53.1599 165.2114 0000832  82.1689 337.4691 15.85132990  2993
STARLINK-37023          
1 68076U 26042H   26074.58335648 -.01492048  00000+0 -69526-2 0  9991
2 68076  53.1598 165.2036 0001056  58.2620   5.2011 15.85236918  2995
STARLINK-37036          
1 68077U 26042J   26074.58335648 -.01487301  00000+0 -68863-2 0  9991
2 68077  53.1597 165.1960 0001269  61.6421   5.4973 15.85357086  2992
STARLINK-36973          
1 68078U 26042K   26074.58335648 -.01489213  00000+0 -68246-2 0  9991
2 68078  53.1599 165.1804 0001087  55.2371  19.4176 15.85572726  2993
STARLINK-37063          
1 68079U 26042L   26074.58335648 -.01487655  00000+0 -68451-2 0  9998
2 68079  53.1594 165.1884 0001181  60.3530  10.4184 15.85486282  2997
STARLINK-37051          
1 68080U 26042M   26074.58335648 -.01492958  00000+0 -67730-2 0  9991
2 68080  53.1596 165.1647 0001315  58.1163  24.0686 15.85782882  2997
STARLINK-37066          
1 68081U 26042N   26074.58335648 -.01488577  00000+0 -67899-2 0  9990
2 68081  53.1602 165.1727 0001147  60.0040  18.4806 15.85666003  2991
STARLINK-37054          
1 68082U 26042P   26074.58335648 -.01491433  00000+0 -67226-2 0  9990
2 68082  53.1597 165.1575 0001090  57.5629  28.1824 15.85913921  2999
STARLINK-37065          
1 68083U 26042Q   26074.58335648 -.01491433  00000+0 -66859-2 0  9992
2 68083  53.1601 165.1499 0001180  60.1149  29.3314 15.86023919  2995
STARLINK-37037          
1 68084U 26042R   26074.58335648 -.01495418  00000+0 -66741-2 0  9990
2 68084  53.1594 165.1417 0001150  57.2486  35.9913 15.86121635  2997
