[{"OBJECT_NAME":"STARLINK-36766","OBJECT_ID":"2026-042A","EPOCH":"2026-03-15T14:00:01.999872","MEAN_MOTION":15.8453418,"ECCENTRICITY":0.00010755,"INCLINATION":53.1598,"RA_OF_ASC_NODE":165.2594,"ARG_OF_PERICENTER":50.3769,"MEAN_ANOMALY":346.1139,"EPHEMERIS_TYPE":0,"CLASSIFICATION_TYPE":"U","NORAD_CAT_ID":68069,"ELEMENT_SET_NO":999,"REV_AT_EPOCH":298,"BSTAR":-0.0070728808,"MEAN_MOTION_DOT":-0.01469763,"MEAN_MOTION_DDOT":0},{"OBJECT_NAME":"STARLINK-36823","OBJECT_ID":"2026-042B","EPOCH":"2026-03-15T14:00:01.999872","MEAN_MOTION":15.84640347,"ECCENTRICITY":9.236e-5,"INCLINATION":53.1593,"RA_OF_ASC_NODE":165.2511,"ARG_OF_PERICENTER":70.8686,"MEAN_ANOMALY":329.4731,"EPHEMERIS_TYPE":0,"CLASSIFICATION_TYPE":"U","NORAD_CAT_ID":68070,"ELEMENT_SET_NO":999,"REV_AT_EPOCH":298,"BSTAR":-0.0070582999,"MEAN_MOTION_DOT":-0.01473676,"MEAN_MOTION_DDOT":0},{"OBJECT_NAME":"STARLINK-36970","OBJECT_ID":"2026-042C","EPOCH":"2026-03-15T14:00:01.999872","MEAN_MOTION":15.84860445,"ECCENTRICITY":9.058e-5,"INCLINATION":53.1599,"RA_OF_ASC_NODE":165.2357,"ARG_OF_PERICENTER":69.0391,"MEAN_ANOMALY":338.9237,"EPHEMERIS_TYPE":0,"CLASSIFICATION_TYPE":"U","NORAD_CAT_ID":68071,"ELEMENT_SET_NO":999,"REV_AT_EPOCH":299,"BSTAR":-0.0070050222,"MEAN_MOTION_DOT":-0.01477724,"MEAN_MOTION_DDOT":0},{"OBJECT_NAME":"STARLINK-36972","OBJECT_ID":"2026-042D","EPOCH":"2026-03-15T14:00:01.999872","MEAN_MOTION":15.84774959,"ECCENTRICITY":0.00011433,"INCLINATION":53.1598,"RA_OF_ASC_NODE":165.2438,"ARG_OF_PERICENTER":58.582,"MEAN_ANOMALY":345.4441,"EPHEMERIS_TYPE":0,"CLASSIFICATION_TYPE":"U","NORAD_CAT_ID":68072,"ELEMENT_SET_NO":999,"REV_AT_EPOCH":299,"BSTAR":-0.0070043267,"MEAN_MOTION_DOT":-0.01472335,"MEAN_MOTION_DDOT":0},{"OBJECT_NAME":"STARLINK-37074","OBJECT_ID":"2026-042E","EPOCH":"2026-03-15T14:00:01.999872","MEAN_MOTION":15.84961488,"ECCENTRICITY":9.664e-5,"INCLINATION":53.16,"RA_OF_ASC_NODE":165.228,"ARG_OF_PERICENTER":69.6845,"MEAN_ANOMALY":342.1087,"EPHEMERIS_TYPE":0,"CLASSIFICATION_TYPE":"U","NORAD_CAT_ID":68073,"ELEMENT_SET_NO":999,"REV_AT_EPOCH":299,"BSTAR":-0.00697351,"MEAN_MOTION_DOT":-0.01478295,"MEAN_MOTION_DDOT":0},{"OBJECT_NAME":"STARLINK-37045","OBJECT_ID":"2026-042F","EPOCH":"2026-03-15T14:00:01.999872","MEAN_MOTION":15.85051288,"ECCENTRICITY":0.00011493,"INCLINATION":53.1598,"RA_OF_ASC_NODE":165.2197,"ARG_OF_PERICENTER":55.0047,"MEAN_ANOMALY":0.692,"EPHEMERIS_TYPE":0,"CLASSIFICATION_TYPE":"U","NORAD_CAT_ID":68074,"ELEMENT_SET_NO":999,"REV_AT_EPOCH":299,"BSTAR":-0.0069651753,"MEAN_MOTION_DOT":-0.01482583,"MEAN_MOTION_DDOT":0},{"OBJECT_NAME":"STARLINK-37026","OBJECT_ID":"2026-042G","EPOCH":"2026-03-15T14:00:01.999872","MEAN_MOTION":15.8513299,"ECCENTRICITY":8.32e-5,"INCLINATION":53.1599,"RA_OF_ASC_NODE":165.2114,"ARG_OF_PERICENTER":82.1689,"MEAN_ANOMALY":337.4691,"EPHEMERIS_TYPE":0,"CLASSIFICATION_TYPE":"U","NORAD_CAT_ID":68075,"ELEMENT_SET_NO":999,"REV_AT_EPOCH":299,"BSTAR":-0.0069534342,"MEAN_MOTION_DOT":-0.01485375,"MEAN_MOTION_DDOT":0},{"OBJECT_NAME":"STARLINK-37023","OBJECT_ID":"2026-042H","EPOCH":"2026-03-15T14:00:01.999872","MEAN_MOTION":15.85236918,"ECCENTRICITY":0.00010563,"INCLINATION":53.1598,"RA_OF_ASC_NODE":165.2036,"ARG_OF_PERICENTER":58.262,"MEAN_ANOMALY":5.2011,"EPHEMERIS_TYPE":0,"CLASSIFICATION_TYPE":"U","NORAD_CAT_ID":68076,"ELEMENT_SET_NO":999,"REV_AT_EPOCH":299,"BSTAR":-0.0069526189,"MEAN_MOTION_DOT":-0.01492048,"MEAN_MOTION_DDOT":0},{"OBJECT_NAME":"STARLINK-37036","OBJECT_ID":"2026-042J","EPOCH":"2026-03-15T14:00:01.999872","MEAN_MOTION":15.85357086,"ECCENTRICITY":0.00012693,"INCLINATION":53.1597,"RA_OF_ASC_NODE":165.196,"ARG_OF_PERICENTER":61.6421,"MEAN_ANOMALY":5.4973,"EPHEMERIS_TYPE":0,"CLASSIFICATION_TYPE":"U","NORAD_CAT_ID":68077,"ELEMENT_SET_NO":999,"REV_AT_EPOCH":299,"BSTAR":-0.0068862648,"MEAN_MOTION_DOT":-0.01487301,"MEAN_MOTION_DDOT":0},{"OBJECT_NAME":"STARLINK-36973","OBJECT_ID":"2026-042K","EPOCH":"2026-03-15T14:00:01.999872","MEAN_MOTION":15.85572726,"ECCENTRICITY":0.00010876,"INCLINATION":53.1599,"RA_OF_ASC_NODE":165.1804,"ARG_OF_PERICENTER":55.2371,"MEAN_ANOMALY":19.4176,"EPHEMERIS_TYPE":0,"CLASSIFICATION_TYPE":"U","NORAD_CAT_ID":68078,"ELEMENT_SET_NO":999,"REV_AT_EPOCH":299,"BSTAR":-0.0068245734,"MEAN_MOTION_DOT":-0.01489213,"MEAN_MOTION_DDOT":0},{"OBJECT_NAME":"STARLINK-37063","OBJECT_ID":"2026-042L","EPOCH":"2026-03-15T14:00:01.999872","MEAN_MOTION":15.85486282,"ECCENTRICITY":0.00011815,"INCLINATION":53.1594,"RA_OF_ASC_NODE":165.1884,"ARG_OF_PERICENTER":60.353,"MEAN_ANOMALY":10.4184,"EPHEMERIS_TYPE":0,"CLASSIFICATION_TYPE":"U","NORAD_CAT_ID":68079,"ELEMENT_SET_NO":999,"REV_AT_EPOCH":299,"BSTAR":-0.006845058,"MEAN_MOTION_DOT":-0.01487655,"MEAN_MOTION_DDOT":0},{"OBJECT_NAME":"STARLINK-37051","OBJECT_ID":"2026-042M","EPOCH":"2026-03-15T14:00:01.999872","MEAN_MOTION":15.85782882,"ECCENTRICITY":0.00013154,"INCLINATION":53.1596,"RA_OF_ASC_NODE":165.1647,"ARG_OF_PERICENTER":58.1163,"MEAN_ANOMALY":24.0686,"EPHEMERIS_TYPE":0,"CLASSIFICATION_TYPE":"U","NORAD_CAT_ID":68080,"ELEMENT_SET_NO":999,"REV_AT_EPOCH":299,"BSTAR":-0.0067729605,"MEAN_MOTION_DOT":-0.01492958,"MEAN_MOTION_DDOT":0},{"OBJECT_NAME":"STARLINK-37066","OBJECT_ID":"2026-042N","EPOCH":"2026-03-15T14:00:01.999872","MEAN_MOTION":15.85666003,"ECCENTRICITY":0.00011479,"INCLINATION":53.1602,"RA_OF_ASC_NODE":165.1727,"ARG_OF_PERICENTER":60.004,"MEAN_ANOMALY":18.4806,"EPHEMERIS_TYPE":0,"CLASSIFICATION_TYPE":"U","NORAD_CAT_ID":68081,"ELEMENT_SET_NO":999,"REV_AT_EPOCH":299,"BSTAR":-0.0067899467,"MEAN_MOTION_DOT":-0.01488577,"MEAN_MOTION_DDOT":0},{"OBJECT_NAME":"STARLINK-37054","OBJECT_ID":"2026-042P","EPOCH":"2026-03-15T14:00:01.999872","MEAN_MOTION":15.85913921,"ECCENTRICITY":0.00010901,"INCLINATION":53.1597,"RA_OF_ASC_NODE":165.1575,"ARG_OF_PERICENTER":57.5629,"MEAN_ANOMALY":28.1824,"EPHEMERIS_TYPE":0,"CLASSIFICATION_TYPE":"U","NORAD_CAT_ID":68082,"ELEMENT_SET_NO":999,"REV_AT_EPOCH":299,"BSTAR":-0.0067225552,"MEAN_MOTION_DOT":-0.01491433,"MEAN_MOTION_DDOT":0},{"OBJECT_NAME":"STARLINK-37065","OBJECT_ID":"2026-042Q","EPOCH":"2026-03-15T14:00:01.999872","MEAN_MOTION":15.86023919,"ECCENTRICITY":0.00011802,"INCLINATION":53.1601,"RA_OF_ASC_NODE":165.1499,"ARG_OF_PERICENTER":60.1149,"MEAN_ANOMALY":29.3314,"EPHEMERIS_TYPE":0,"CLASSIFICATION_TYPE":"U","NORAD_CAT_ID":68083,"ELEMENT_SET_NO":999,"REV_AT_EPOCH":299,"BSTAR":-0.0066859495,"MEAN_MOTION_DOT":-0.01491433,"MEAN_MOTION_DDOT":0},{"OBJECT_NAME":"STARLINK-37037","OBJECT_ID":"2026-042R","EPOCH":"2026-03-15T14:00:01.999872","MEAN_MOTION":15.86121635,"ECCENTRICITY":0.00011507,"INCLINATION":53.1594,"RA_OF_ASC_NODE":165.1417,"ARG_OF_PERICENTER":57.2486,"MEAN_ANOMALY":35.9913,"EPHEMERIS_TYPE":0,"CLASSIFICATION_TYPE":"U","NORAD_CAT_ID":68084,"ELEMENT_SET_NO":999,"REV_AT_EPOCH":299,"BSTAR":-0.0066740639,"MEAN_MOTION_DOT":-0.01495418,"MEAN_MOTION_DDOT":0}]
